[
    {
        "Altitude(m)": 590279.8627059591,
        "Argument of Periapsis(deg)": 0.0,
        "Eccentricity": 0.0,
        "Inclination(deg)": 97.0,
        "Latitude(deg)": -73.14146587984861,
        "Longitude(deg)": -46.20468489679219,
        "Mean Anomaly(deg)": 285.5172,
        "RAAN(deg)": 30.0,
        "Satellite Name": "Starlink Shell 3 1688",
        "Satellite Number": 1688,
        "Semi-Major Axis(m)": 6938478.169268562,
        "Time(s)": 0
    },
    {
        "Altitude(m)": 590155.9006638561,
        "Argument of Periapsis(deg)": -0.0003965466804030246,
        "Eccentricity": 0.0,
        "Inclination(deg)": 97.0,
        "Latitude(deg)": -72.57592815376688,
        "Longitude(deg)": -47.11244103280331,
        "Mean Anomaly(deg)": 286.14267619770504,
        "RAAN(deg)": 30.00010433427401,
        "Satellite Name": "Starlink Shell 3 1688",
        "Satellite Number": 1688,
        "Semi-Major Axis(m)": 6938478.169268562,
        "Time(s)": 10
    },
    {
        "Altitude(m)": 590027.5027609993,
        "Argument of Periapsis(deg)": -0.0007930933608060492,
        "Eccentricity": 0.0,
        "Inclination(deg)": 97.0,
        "Latitude(deg)": -72.00683368201257,
        "Longitude(deg)": -47.96728435217884,
        "Mean Anomaly(deg)": 286.76815239541014,
        "RAAN(deg)": 30.000208668548012,
        "Satellite Name": "Starlink Shell 3 1688",
        "Satellite Number": 1688,
        "Semi-Major Axis(m)": 6938478.169268562,
        "Time(s)": 20
    },
    {
        "Altitude(m)": 589894.7208849336,
        "Argument of Periapsis(deg)": -0.001189640041209074,
        "Eccentricity": 0.0,
        "Inclination(deg)": 97.0,
        "Latitude(deg)": -71.43450335246834,
        "Longitude(deg)": -48.77379689106141,
        "Mean Anomaly(deg)": 287.3936285931152,
        "RAAN(deg)": 30.000313002822026,
        "Satellite Name": "Starlink Shell 3 1688",
        "Satellite Number": 1688,
        "Semi-Major Axis(m)": 6938478.169268562,
        "Time(s)": 30
    },
    {
        "Altitude(m)": 589757.6086859682,
        "Argument of Periapsis(deg)": -0.0015861867216120985,
        "Eccentricity": 0.0,
        "Inclination(deg)": 97.0,
        "Latitude(deg)": -70.85922123897839,
        "Longitude(deg)": -49.53607903680656,
        "Mean Anomaly(deg)": 288.01910479082017,
        "RAAN(deg)": 30.000417337096035,
        "Satellite Name": "Starlink Shell 3 1688",
        "Satellite Number": 1688,
        "Semi-Major Axis(m)": 6938478.169268562,
        "Time(s)": 40
    },
    {
        "Altitude(m)": 589616.2215542975,
        "Argument of Periapsis(deg)": -0.0019827334020151234,
        "Eccentricity": 0.0,
        "Inclination(deg)": 97.0,
        "Latitude(deg)": -70.28123949965429,
        "Longitude(deg)": -50.25780726518517,
        "Mean Anomaly(deg)": 288.64458098852526,
        "RAAN(deg)": 30.00052167137004,
        "Satellite Name": "Starlink Shell 3 1688",
        "Satellite Number": 1688,
        "Semi-Major Axis(m)": 6938478.169268562,
        "Time(s)": 50
    },
    {
        "Altitude(m)": 589470.6165964341,
        "Argument of Periapsis(deg)": -0.002379280082418148,
        "Eccentricity": 0.0,
        "Inclination(deg)": 97.0,
        "Latitude(deg)": -69.70078255045428,
        "Longitude(deg)": -50.942283394831534,
        "Mean Anomaly(deg)": 289.2700571862303,
        "RAAN(deg)": 30.00062600564405,
        "Satellite Name": "Starlink Shell 3 1688",
        "Satellite Number": 1688,
        "Semi-Major Axis(m)": 6938478.169268562,
        "Time(s)": 60
    },
    {
        "Altitude(m)": 589320.8526107923,
        "Argument of Periapsis(deg)": -0.002775826762821173,
        "Eccentricity": 0.0,
        "Inclination(deg)": 97.0,
        "Latitude(deg)": -69.11805062904041,
        "Longitude(deg)": -51.59247766202855,
        "Mean Anomaly(deg)": 289.89553338393534,
        "RAAN(deg)": 30.00073033991806,
        "Satellite Name": "Starlink Shell 3 1688",
        "Satellite Number": 1688,
        "Semi-Major Axis(m)": 6938478.169268562,
        "Time(s)": 70
    },
    {
        "Altitude(m)": 589166.9900626059,
        "Argument of Periapsis(deg)": -0.003172373443224197,
        "Eccentricity": 0.0,
        "Inclination(deg)": 97.0,
        "Latitude(deg)": -68.53322284509659,
        "Longitude(deg)": -52.21106786841999,
        "Mean Anomaly(deg)": 290.5210095816404,
        "RAAN(deg)": 30.000834674192067,
        "Satellite Name": "Starlink Shell 3 1688",
        "Satellite Number": 1688,
        "Semi-Major Axis(m)": 6938478.169268562,
        "Time(s)": 80
    },
    {
        "Altitude(m)": 589009.0910580708,
        "Argument of Periapsis(deg)": -0.0035689201236272223,
        "Eccentricity": 0.0,
        "Inclination(deg)": 97.0,
        "Latitude(deg)": -67.94645979746825,
        "Longitude(deg)": -52.8004722507394,
        "Mean Anomaly(deg)": 291.1464857793454,
        "RAAN(deg)": 30.000939008466077,
        "Satellite Name": "Starlink Shell 3 1688",
        "Satellite Number": 1688,
        "Semi-Major Axis(m)": 6938478.169268562,
        "Time(s)": 90
    },
    {
        "Altitude(m)": 588847.2193177704,
        "Argument of Periapsis(deg)": -0.003965466804030247,
        "Eccentricity": 0.0,
        "Inclination(deg)": 97.0,
        "Latitude(deg)": -67.35790582525911,
        "Longitude(deg)": -53.36287819055296,
        "Mean Anomaly(deg)": 291.77196197705047,
        "RAAN(deg)": 30.001043342740093,
        "Satellite Name": "Starlink Shell 3 1688",
        "Satellite Number": 1688,
        "Semi-Major Axis(m)": 6938478.169268562,
        "Time(s)": 100
    },
    {
        "Altitude(m)": 588681.4401493858,
        "Argument of Periapsis(deg)": -0.004362013484433271,
        "Eccentricity": 0.0,
        "Inclination(deg)": 97.0,
        "Latitude(deg)": -66.76769094899352,
        "Longitude(deg)": -53.900268813043574,
        "Mean Anomaly(deg)": 292.3974381747555,
        "RAAN(deg)": 30.001147677014096,
        "Satellite Name": "Starlink Shell 3 1688",
        "Satellite Number": 1688,
        "Semi-Major Axis(m)": 6938478.169268562,
        "Time(s)": 110
    },
    {
        "Altitude(m)": 588511.8204197,
        "Argument of Periapsis(deg)": -0.004758560164836296,
        "Eccentricity": 0.0,
        "Inclination(deg)": 97.0,
        "Latitude(deg)": -66.17593254878325,
        "Longitude(deg)": -54.41444492014025,
        "Mean Anomaly(deg)": 293.02291437246055,
        "RAAN(deg)": 30.00125201128811,
        "Satellite Name": "Starlink Shell 3 1688",
        "Satellite Number": 1688,
        "Semi-Major Axis(m)": 6938478.169268562,
        "Time(s)": 120
    },
    {
        "Altitude(m)": 588338.4285259168,
        "Argument of Periapsis(deg)": -0.005155106845239321,
        "Eccentricity": 0.0,
        "Inclination(deg)": 97.0,
        "Latitude(deg)": -65.58273681882383,
        "Longitude(deg)": -54.90704418232329,
        "Mean Anomaly(deg)": 293.6483905701656,
        "RAAN(deg)": 30.00135634556212,
        "Satellite Name": "Starlink Shell 3 1688",
        "Satellite Number": 1688,
        "Semi-Major Axis(m)": 6938478.169268562,
        "Time(s)": 130
    },
    {
        "Altitude(m)": 588161.3343662465,
        "Argument of Periapsis(deg)": -0.005551653525642346,
        "Eccentricity": 0.0,
        "Inclination(deg)": 97.0,
        "Latitude(deg)": -64.98820003121868,
        "Longitude(deg)": -55.37955945989105,
        "Mean Anomaly(deg)": 294.27386676787063,
        "RAAN(deg)": 30.001460679836125,
        "Satellite Name": "Starlink Shell 3 1688",
        "Satellite Number": 1688,
        "Semi-Major Axis(m)": 6938478.169268562,
        "Time(s)": 140
    },
    {
        "Altitude(m)": 587980.6093098843,
        "Argument of Periapsis(deg)": -0.005948200206045371,
        "Eccentricity": 0.0,
        "Inclination(deg)": 97.0,
        "Latitude(deg)": -64.39240963686635,
        "Longitude(deg)": -55.83335353839737,
        "Mean Anomaly(deg)": 294.89934296557567,
        "RAAN(deg)": 30.001565014110135,
        "Satellite Name": "Starlink Shell 3 1688",
        "Satellite Number": 1688,
        "Semi-Major Axis(m)": 6938478.169268562,
        "Time(s)": 150
    },
    {
        "Altitude(m)": 587796.3261662775,
        "Argument of Periapsis(deg)": -0.006344746886448394,
        "Eccentricity": 0.0,
        "Inclination(deg)": 97.0,
        "Latitude(deg)": -63.795445226781176,
        "Longitude(deg)": -56.269672059973736,
        "Mean Anomaly(deg)": 295.5248191632807,
        "RAAN(deg)": 30.001669348384144,
        "Satellite Name": "Starlink Shell 3 1688",
        "Satellite Number": 1688,
        "Semi-Major Axis(m)": 6938478.169268562,
        "Time(s)": 160
    },
    {
        "Altitude(m)": 587608.5591537347,
        "Argument of Periapsis(deg)": -0.00674129356685142,
        "Eccentricity": 0.0,
        "Inclination(deg)": 97.0,
        "Latitude(deg)": -63.19737937357189,
        "Longitude(deg)": -56.6896563959596,
        "Mean Anomaly(deg)": 296.15029536098575,
        "RAAN(deg)": 30.00177368265815,
        "Satellite Name": "Starlink Shell 3 1688",
        "Satellite Number": 1688,
        "Semi-Major Axis(m)": 6938478.169268562,
        "Time(s)": 170
    },
    {
        "Altitude(m)": 587417.3838674419,
        "Argument of Periapsis(deg)": -0.007137840247254445,
        "Eccentricity": 0.0,
        "Inclination(deg)": 97.0,
        "Latitude(deg)": -62.59827836976295,
        "Longitude(deg)": -57.09435363615213,
        "Mean Anomaly(deg)": 296.7757715586908,
        "RAAN(deg)": 30.00187801693216,
        "Satellite Name": "Starlink Shell 3 1688",
        "Satellite Number": 1688,
        "Semi-Major Axis(m)": 6938478.169268562,
        "Time(s)": 180
    }
]